STARLINK-36320          
1 68090U 26042X   26069.91670139 -.01301961  53953-3 -24053-2 0  9993
2 68090  53.1598 188.9302 0000684  61.5633 262.5706 16.00556047  2238
STARLINK-36324          
1 68091U 26042Y   26069.91670139 -.01281204  52321-3 -23843-2 0  9995
2 68091  53.1594 188.9339 0000777  43.3074 278.9832 16.00425522  2239
STARLINK-36896          
1 68092U 26042Z   26069.91670139 -.01298739  53777-3 -23835-2 0  9994
2 68092  53.1595 188.9266 0000897  60.2302 265.5803 16.00670472  2242
STARLINK-36251          
1 68093U 26042AA  26069.91670139 -.01301800  54151-3 -23560-2 0  9991
2 68093  53.1594 188.9192 0000670  62.1428 267.2257 16.00913125  2235
STARLINK-36787          
1 68094U 26042AB  26069.91670139 -.01285204  53072-3 -22859-2 0  9992
2 68094  53.1590 188.9057 0000777  45.7174 289.9705 16.01209645  2230
STARLINK-36790          
1 68095U 26042AC  26069.91670139 -.01281063  52510-3 -23365-2 0  9991
2 68095  53.1595 188.9231 0000744  66.9153 260.5614 16.00774883  2230
STARLINK-36328          
1 68096U 26042AD  26069.91670139 -.01295669  53948-3 -22854-2 0  9997
2 68096  53.1595 188.9011 0000851  46.9936 290.8374 16.01354482  2232
STARLINK-36853          
1 68097U 26042AE  26069.91670139 -.01292312  53536-3 -23151-2 0  9994
2 68097  53.1593 188.9097 0000741  53.7036 280.0561 16.01087017  2247
GLOBAL-34               
1 68098U 26043A   26069.71373682  .00015097  00000+0  49218-3 0  9994
2 68098  42.0218  69.5878 0006739 295.8316  64.1826 15.31527863   729
ELECTRON KICK STAGE R/B 
1 68100U 26043C   26069.41726918  .03713298  82447-5  19170-2 0  9994
2 68100  42.1185  69.0950 0129930  54.9732 306.3246 16.02816144   693
ECHOSTAR 25             
1 68126U 26045A   26069.34632498  .00001692  00000+0  28878-3 0  9995
2 68126  26.8942  71.1091 6208312 174.1557 199.6094  3.74435031    16
