CCSDS_OMM_VERS = 2.0
CREATION_DATE  = 
ORIGINATOR     = 

OBJECT_NAME    = STARLINK-36320
OBJECT_ID      = 2026-042X
CENTER_NAME    = EARTH
REF_FRAME      = TEME
TIME_SYSTEM    = UTC
MEAN_ELEMENT_THEORY = SGP/SGP4

EPOCH          = 2026-03-10T22:00:03.000096
MEAN_MOTION    = 16.00556047
ECCENTRICITY   = .0000684
INCLINATION    = 53.1598
RA_OF_ASC_NODE = 188.9302
ARG_OF_PERICENTER = 61.5633
MEAN_ANOMALY   = 262.5706

EPHEMERIS_TYPE = 0
CLASSIFICATION_TYPE = U
NORAD_CAT_ID   = 68090
ELEMENT_SET_NO = 999
REV_AT_EPOCH   = 223
BSTAR          = -.2405339E-2
MEAN_MOTION_DOT = -.1301961E-1
MEAN_MOTION_DDOT = .53952894E-3

CCSDS_OMM_VERS = 2.0
CREATION_DATE  = 
ORIGINATOR     = 

OBJECT_NAME    = STARLINK-36324
OBJECT_ID      = 2026-042Y
CENTER_NAME    = EARTH
REF_FRAME      = TEME
TIME_SYSTEM    = UTC
MEAN_ELEMENT_THEORY = SGP/SGP4

EPOCH          = 2026-03-10T22:00:03.000096
MEAN_MOTION    = 16.00425522
ECCENTRICITY   = .00007774
INCLINATION    = 53.1594
RA_OF_ASC_NODE = 188.9339
ARG_OF_PERICENTER = 43.3074
MEAN_ANOMALY   = 278.9832

EPHEMERIS_TYPE = 0
CLASSIFICATION_TYPE = U
NORAD_CAT_ID   = 68091
ELEMENT_SET_NO = 999
REV_AT_EPOCH   = 223
BSTAR          = -.23843319E-2
MEAN_MOTION_DOT = -.1281204E-1
MEAN_MOTION_DDOT = .52321186E-3

CCSDS_OMM_VERS = 2.0
CREATION_DATE  = 
ORIGINATOR     = 

OBJECT_NAME    = STARLINK-36896
OBJECT_ID      = 2026-042Z
CENTER_NAME    = EARTH
REF_FRAME      = TEME
TIME_SYSTEM    = UTC
MEAN_ELEMENT_THEORY = SGP/SGP4

EPOCH          = 2026-03-10T22:00:03.000096
MEAN_MOTION    = 16.00670472
ECCENTRICITY   = .00008979
INCLINATION    = 53.1595
RA_OF_ASC_NODE = 188.9266
ARG_OF_PERICENTER = 60.2302
MEAN_ANOMALY   = 265.5803

EPHEMERIS_TYPE = 0
CLASSIFICATION_TYPE = U
NORAD_CAT_ID   = 68092
ELEMENT_SET_NO = 999
REV_AT_EPOCH   = 224
BSTAR          = -.23834856E-2
MEAN_MOTION_DOT = -.1298739E-1
MEAN_MOTION_DDOT = .53776743E-3

CCSDS_OMM_VERS = 2.0
CREATION_DATE  = 
ORIGINATOR     = 

OBJECT_NAME    = STARLINK-36251
OBJECT_ID      = 2026-042AA
CENTER_NAME    = EARTH
REF_FRAME      = TEME
TIME_SYSTEM    = UTC
MEAN_ELEMENT_THEORY = SGP/SGP4

EPOCH          = 2026-03-10T22:00:03.000096
MEAN_MOTION    = 16.00913125
ECCENTRICITY   = .00006704
INCLINATION    = 53.1594
RA_OF_ASC_NODE = 188.9192
ARG_OF_PERICENTER = 62.1428
MEAN_ANOMALY   = 267.2257

EPHEMERIS_TYPE = 0
CLASSIFICATION_TYPE = U
NORAD_CAT_ID   = 68093
ELEMENT_SET_NO = 999
REV_AT_EPOCH   = 223
BSTAR          = -.23559579E-2
MEAN_MOTION_DOT = -.13018E-1
MEAN_MOTION_DDOT = .54151323E-3

CCSDS_OMM_VERS = 2.0
CREATION_DATE  = 
ORIGINATOR     = 

OBJECT_NAME    = STARLINK-36787
OBJECT_ID      = 2026-042AB
CENTER_NAME    = EARTH
REF_FRAME      = TEME
TIME_SYSTEM    = UTC
MEAN_ELEMENT_THEORY = SGP/SGP4

EPOCH          = 2026-03-10T22:00:03.000096
MEAN_MOTION    = 16.01209645
ECCENTRICITY   = .0000777
INCLINATION    = 53.1590
RA_OF_ASC_NODE = 188.9057
ARG_OF_PERICENTER = 45.7174
MEAN_ANOMALY   = 289.9705

EPHEMERIS_TYPE = 0
CLASSIFICATION_TYPE = U
NORAD_CAT_ID   = 68094
ELEMENT_SET_NO = 999
REV_AT_EPOCH   = 223
BSTAR          = -.22858749E-2
MEAN_MOTION_DOT = -.1285204E-1
MEAN_MOTION_DDOT = .5307192E-3

CCSDS_OMM_VERS = 2.0
CREATION_DATE  = 
ORIGINATOR     = 

OBJECT_NAME    = STARLINK-36790
OBJECT_ID      = 2026-042AC
CENTER_NAME    = EARTH
REF_FRAME      = TEME
TIME_SYSTEM    = UTC
MEAN_ELEMENT_THEORY = SGP/SGP4

EPOCH          = 2026-03-10T22:00:03.000096
MEAN_MOTION    = 16.00774883
ECCENTRICITY   = .00007443
INCLINATION    = 53.1595
RA_OF_ASC_NODE = 188.9231
ARG_OF_PERICENTER = 66.9153
MEAN_ANOMALY   = 260.5614

EPHEMERIS_TYPE = 0
CLASSIFICATION_TYPE = U
NORAD_CAT_ID   = 68095
ELEMENT_SET_NO = 999
REV_AT_EPOCH   = 223
BSTAR          = -.23365429E-2
MEAN_MOTION_DOT = -.1281063E-1
MEAN_MOTION_DDOT = .5251014E-3

CCSDS_OMM_VERS = 2.0
CREATION_DATE  = 
ORIGINATOR     = 

OBJECT_NAME    = STARLINK-36328
OBJECT_ID      = 2026-042AD
CENTER_NAME    = EARTH
REF_FRAME      = TEME
TIME_SYSTEM    = UTC
MEAN_ELEMENT_THEORY = SGP/SGP4

EPOCH          = 2026-03-10T22:00:03.000096
MEAN_MOTION    = 16.01354482
ECCENTRICITY   = .00008517
INCLINATION    = 53.1595
RA_OF_ASC_NODE = 188.9011
ARG_OF_PERICENTER = 46.9936
MEAN_ANOMALY   = 290.8374

EPHEMERIS_TYPE = 0
CLASSIFICATION_TYPE = U
NORAD_CAT_ID   = 68096
ELEMENT_SET_NO = 999
REV_AT_EPOCH   = 223
BSTAR          = -.22853805E-2
MEAN_MOTION_DOT = -.1295669E-1
MEAN_MOTION_DDOT = .53948091E-3

CCSDS_OMM_VERS = 2.0
CREATION_DATE  = 
ORIGINATOR     = 

OBJECT_NAME    = STARLINK-36853
OBJECT_ID      = 2026-042AE
CENTER_NAME    = EARTH
REF_FRAME      = TEME
TIME_SYSTEM    = UTC
MEAN_ELEMENT_THEORY = SGP/SGP4

EPOCH          = 2026-03-10T22:00:03.000096
MEAN_MOTION    = 16.01087017
ECCENTRICITY   = .00007416
INCLINATION    = 53.1593
RA_OF_ASC_NODE = 188.9097
ARG_OF_PERICENTER = 53.7036
MEAN_ANOMALY   = 280.0561

EPHEMERIS_TYPE = 0
CLASSIFICATION_TYPE = U
NORAD_CAT_ID   = 68097
ELEMENT_SET_NO = 999
REV_AT_EPOCH   = 224
BSTAR          = -.231511E-2
MEAN_MOTION_DOT = -.1292312E-1
MEAN_MOTION_DDOT = .53535947E-3

CCSDS_OMM_VERS = 2.0
CREATION_DATE  = 
ORIGINATOR     = 

OBJECT_NAME    = GLOBAL-34
OBJECT_ID      = 2026-043A
CENTER_NAME    = EARTH
REF_FRAME      = TEME
TIME_SYSTEM    = UTC
MEAN_ELEMENT_THEORY = SGP/SGP4

EPOCH          = 2026-03-10T17:07:46.861248
MEAN_MOTION    = 15.31527863
ECCENTRICITY   = .00067399
INCLINATION    = 42.0218
RA_OF_ASC_NODE = 69.5878
ARG_OF_PERICENTER = 295.8316
MEAN_ANOMALY   = 64.1826

EPHEMERIS_TYPE = 0
CLASSIFICATION_TYPE = U
NORAD_CAT_ID   = 68098
ELEMENT_SET_NO = 999
REV_AT_EPOCH   = 72
BSTAR          = .49218376E-3
MEAN_MOTION_DOT = .15097E-3
MEAN_MOTION_DDOT = 0

CCSDS_OMM_VERS = 2.0
CREATION_DATE  = 
ORIGINATOR     = 

OBJECT_NAME    = ELECTRON KICK STAGE R/B
OBJECT_ID      = 2026-043C
CENTER_NAME    = EARTH
REF_FRAME      = TEME
TIME_SYSTEM    = UTC
MEAN_ELEMENT_THEORY = SGP/SGP4

EPOCH          = 2026-03-10T10:00:52.057152
MEAN_MOTION    = 16.02816144
ECCENTRICITY   = .01299309
INCLINATION    = 42.1185
RA_OF_ASC_NODE = 69.0950
ARG_OF_PERICENTER = 54.9732
MEAN_ANOMALY   = 306.3246

EPHEMERIS_TYPE = 0
CLASSIFICATION_TYPE = U
NORAD_CAT_ID   = 68100
ELEMENT_SET_NO = 999
REV_AT_EPOCH   = 69
BSTAR          = .19170222E-2
MEAN_MOTION_DOT = .3713298E-1
MEAN_MOTION_DDOT = .8244672E-5

CCSDS_OMM_VERS = 2.0
CREATION_DATE  = 
ORIGINATOR     = 

OBJECT_NAME    = ECHOSTAR 25
OBJECT_ID      = 2026-045A
CENTER_NAME    = EARTH
REF_FRAME      = TEME
TIME_SYSTEM    = UTC
MEAN_ELEMENT_THEORY = SGP/SGP4

EPOCH          = 2026-03-10T08:18:42.478272
MEAN_MOTION    = 3.74435031
ECCENTRICITY   = .62083129
INCLINATION    = 26.8942
RA_OF_ASC_NODE = 71.1091
ARG_OF_PERICENTER = 174.1557
MEAN_ANOMALY   = 199.6094

EPHEMERIS_TYPE = 0
CLASSIFICATION_TYPE = U
NORAD_CAT_ID   = 68126
ELEMENT_SET_NO = 999
REV_AT_EPOCH   = 1
BSTAR          = .2887765E-3
MEAN_MOTION_DOT = .1692E-4
MEAN_MOTION_DDOT = 0

